OBJECT_NAME,OBJECT_ID,EPOCH,MEAN_MOTION,ECCENTRICITY,INCLINATION,RA_OF_ASC_NODE,ARG_OF_PERICENTER,MEAN_ANOMALY,EPHEMERIS_TYPE,CLASSIFICATION_TYPE,NORAD_CAT_ID,ELEMENT_SET_NO,REV_AT_EPOCH,BSTAR,MEAN_MOTION_DOT,MEAN_MOTION_DDOT
2024-174E,2024-174E,2026-06-27T22:42:26.203104,15.27665247,.00129045,97.4448,189.9028,187.8771,172.2268,0,U,61242,999,9748,.21681428E-3,.58E-4,0
STARLINK-11300 [DTC],2024-175A,2026-06-27T21:14:52.856736,15.69708118,.00009547,53.1582,233.0654,84.4567,275.6560,0,U,61243,999,10067,.14877523E-4,.1214E-4,0
STARLINK-11276 [DTC],2024-175B,2026-06-27T21:07:48.812448,15.69713065,.00010595,53.1583,233.0321,86.7893,273.3246,0,U,61244,999,10067,.2331848E-5,-.306E-5,0
STARLINK-11280 [DTC],2024-175C,2026-06-27T20:53:41.490240,15.69706047,.00009188,53.1585,232.9751,85.5425,274.5698,0,U,61245,999,10067,.825226E-5,.411E-5,0
STARLINK-11308 [DTC],2024-175D,2026-06-27T21:00:45.284832,15.69708568,.00010995,53.1588,232.9992,95.8710,264.2434,0,U,61246,999,10067,.4471998E-5,-.47E-6,0
STARLINK-11305 [DTC],2024-175E,2026-06-27T20:46:38.487072,15.69678023,.00012573,53.1589,232.9351,103.2366,256.8792,0,U,61247,999,10067,.55185874E-4,.6093E-4,0
STARLINK-11317 [DTC],2024-175F,2026-06-27T20:39:33.572736,15.69713436,.00008247,53.1582,232.8992,87.2939,272.8173,0,U,61248,999,10067,.6865967E-5,.244E-5,0
STARLINK-11293 [DTC],2024-175G,2026-06-27T20:32:29.907744,15.69711635,.0001051,53.1584,232.8694,90.4622,269.6516,0,U,61249,999,10067,.133149E-5,-.427E-5,0
STARLINK-11319 [DTC],2024-175J,2026-06-27T09:36:43.632864,15.69708208,.00005575,53.1570,235.7346,73.6550,286.4529,0,U,61251,999,10059,.14883883E-4,.1216E-4,0
STARLINK-11318 [DTC],2024-175K,2026-06-27T14:04:42.496608,15.69712234,.00004888,53.1576,234.7574,47.4457,312.6602,0,U,61252,999,10179,.5400354E-5,.67E-6,0
STARLINK-11311 [DTC],2024-175L,2026-06-27T13:57:39.212640,15.69709135,.00010197,53.1567,234.7253,66.9480,293.1645,0,U,61253,999,10183,.12610673E-4,.939E-5,0
STARLINK-11306 [DTC],2024-175M,2026-06-27T10:47:13.110720,15.69709862,.00007037,53.1574,235.3170,62.9909,297.1181,0,U,61254,999,10180,.8338365E-5,.422E-5,0
STARLINK-11313 [DTC],2024-175N,2026-06-27T13:43:31.507680,15.69705595,.00010514,53.1585,234.6573,91.0941,269.0197,0,U,61255,999,10062,.16147615E-4,.1368E-4,0
STARLINK-32431,2024-175P,2026-06-27T20:41:12.637248,15.34390092,.00009494,53.1595,41.4417,82.7221,277.3889,0,U,61256,999,9833,.12064936E-3,.3701E-4,0
STARLINK-32432,2024-175Q,2026-06-27T22:05:54.197952,15.34401975,.00010825,53.1592,41.1017,116.3286,243.7828,0,U,61257,999,9834,.21276592E-4,.343E-5,0
STARLINK-32382,2024-175R,2026-06-27T21:47:43.692576,15.34395291,.00010456,53.1623,41.0223,77.9253,282.1867,0,U,61258,999,9834,.78657914E-4,.2282E-4,0
STARLINK-32435,2024-175S,2026-06-27T21:26:31.384320,15.34397876,.00010604,53.1609,40.9324,87.3324,272.7800,0,U,61259,999,9834,.11223802E-3,.3418E-4,0
STARLINK-32474,2024-175T,2026-06-27T20:59:22.681248,15.34402046,.00013871,53.1600,41.5187,96.7001,263.4159,0,U,61260,999,9833,-.22806597E-4,-.1147E-4,0
STARLINK-32447,2024-175U,2026-06-27T20:50:19.181184,15.34385947,.00015279,53.1593,41.4805,90.8597,269.2581,0,U,61261,999,9833,.22052432E-3,.7078E-4,0
STARLINK-32446,2024-175V,2026-06-27T21:29:32.754336,15.34397303,.0000968,53.1617,40.9435,87.7543,272.3570,0,U,61262,999,9834,.58223807E-4,.1591E-4,0
HULIANWAN GAOGUI-03 (HG-03),2024-181A,2026-06-27T05:17:46.543776,1.00274533,.0001514,0.0467,357.7458,90.0159,189.8965,0,U,61503,999,692,0,-.23E-5,0
STARLINK-32174,2024-183A,2026-06-27T17:44:58.668288,15.34394976,.00010914,53.1607,337.6417,97.8102,262.3025,0,U,61509,999,9669,.15643431E-4,.152E-5,0
STARLINK-32139,2024-183B,2026-06-27T21:28:39.152640,15.31717012,.00010439,53.1607,349.9773,82.6310,277.4810,0,U,61510,999,9653,.4254922E-4,.956E-5,0
STARLINK-32140,2024-183C,2026-06-27T21:01:46.924320,15.31706989,.00011344,53.1609,349.8606,64.4906,295.6212,0,U,61511,999,9653,.39709297E-4,.868E-5,0
STARLINK-32201,2024-183D,2026-06-27T21:04:41.102400,15.34391803,.00009204,53.1601,337.0823,111.3558,248.7543,0,U,61512,999,9670,.51592481E-4,.1367E-4,0
STARLINK-32030,2024-183E,2026-06-27T21:28:41.615904,15.30201670,.00012107,53.1607,350.6823,86.5088,273.6052,0,U,61513,999,9652,.11279707E-3,.2983E-4,0
STARLINK-31837,2024-183F,2026-06-27T18:02:20.308416,15.30206266,.00016126,53.1620,351.1996,36.7539,323.3572,0,U,61514,999,9650,.57893485E-4,.1356E-4,0
STARLINK-32136,2024-183G,2026-06-27T18:40:53.826528,15.31714771,.0000876,53.1605,350.6718,87.1282,272.9819,0,U,61515,999,9651,.34527476E-4,.707E-5,0
STARLINK-32047,2024-183H,2026-06-27T18:07:17.939136,15.31705604,.00010171,53.1600,350.5167,83.0358,277.0759,0,U,61516,999,9651,.86255475E-4,.2313E-4,0
STARLINK-31756,2024-183J,2026-06-26T05:19:11.130240,15.30572423,.0000977,53.1593,358.6688,158.4540,201.6502,0,U,61517,999,9626,.15809E-2,.47307E-3,0
