2024-174E               
1 61242U 24174E   26178.94613661  .00005800  00000+0  21681-3 0  9996
2 61242  97.4448 189.9028 0012904 187.8771 172.2268 15.27665247 97486
STARLINK-11300 [DTC]    
1 61243U 24175A   26178.88533399  .00001214  00000+0  14878-4 0  9996
2 61243  53.1582 233.0654 0000954  84.4567 275.6560 15.69708118100678
STARLINK-11276 [DTC]    
1 61244U 24175B   26178.88042607 -.00000306  00000+0  23318-5 0  9996
2 61244  53.1583 233.0321 0001059  86.7893 273.3246 15.69713065100678
STARLINK-11280 [DTC]    
1 61245U 24175C   26178.87061910  .00000411  00000+0  82523-5 0  9993
2 61245  53.1585 232.9751 0000918  85.5425 274.5698 15.69706047100673
STARLINK-11308 [DTC]    
1 61246U 24175D   26178.87552413 -.00000047  00000+0  44720-5 0  9990
2 61246  53.1588 232.9992 0001099  95.8710 264.2434 15.69708568100670
STARLINK-11305 [DTC]    
1 61247U 24175E   26178.86572323  .00006093  00000+0  55186-4 0  9995
2 61247  53.1589 232.9351 0001257 103.2366 256.8792 15.69678023100674
STARLINK-11317 [DTC]    
1 61248U 24175F   26178.86080524  .00000244  00000+0  68660-5 0  9997
2 61248  53.1582 232.8992 0000824  87.2939 272.8173 15.69713436100673
STARLINK-11293 [DTC]    
1 61249U 24175G   26178.85590171 -.00000427  00000+0  13315-5 0  9992
2 61249  53.1584 232.8694 0001051  90.4622 269.6516 15.69711635100677
STARLINK-11319 [DTC]    
1 61251U 24175J   26178.40050501  .00001216  00000+0  14884-4 0  9991
2 61251  53.1570 235.7346 0000557  73.6550 286.4529 15.69708208100598
STARLINK-11318 [DTC]    
1 61252U 24175K   26178.58660297  .00000067  00000+0  54004-5 0  9992
2 61252  53.1576 234.7574 0000488  47.4457 312.6602 15.69712234101796
STARLINK-11311 [DTC]    
1 61253U 24175L   26178.58170385  .00000939  00000+0  12611-4 0  9992
2 61253  53.1567 234.7253 0001019  66.9480 293.1645 15.69709135101835
STARLINK-11306 [DTC]    
1 61254U 24175M   26178.44945730  .00000422  00000+0  83384-5 0  9995
2 61254  53.1574 235.3170 0000703  62.9909 297.1181 15.69709862101803
STARLINK-11313 [DTC]    
1 61255U 24175N   26178.57189245  .00001368  00000+0  16148-4 0  9994
2 61255  53.1585 234.6573 0001051  91.0941 269.0197 15.69705595100624
STARLINK-32431          
1 61256U 24175P   26178.86195182  .00003701  00000+0  12065-3 0  9990
2 61256  53.1595  41.4417 0000949  82.7221 277.3889 15.34390092 98338
STARLINK-32432          
1 61257U 24175Q   26178.92076618  .00000343  00000+0  21277-4 0  9995
2 61257  53.1592  41.1017 0001082 116.3286 243.7828 15.34401975 98347
STARLINK-32382          
1 61258U 24175R   26178.90814459  .00002282  00000+0  78658-4 0  9996
2 61258  53.1623  41.0223 0001045  77.9253 282.1867 15.34395291 98349
STARLINK-32435          
1 61259U 24175S   26178.89341880  .00003418  00000+0  11224-3 0  9995
2 61259  53.1609  40.9324 0001060  87.3324 272.7800 15.34397876 98348
STARLINK-32474          
1 61260U 24175T   26178.87456807 -.00001147  00000+0 -22807-4 0  9990
2 61260  53.1600  41.5187 0001387  96.7001 263.4159 15.34402046 98332
STARLINK-32447          
1 61261U 24175U   26178.86827756  .00007078  00000+0  22052-3 0  9993
2 61261  53.1593  41.4805 0001527  90.8597 269.2581 15.34385947 98334
STARLINK-32446          
1 61262U 24175V   26178.89551799  .00001591  00000+0  58224-4 0  9993
2 61262  53.1617  40.9435 0000968  87.7543 272.3570 15.34397303 98342
HULIANWAN GAOGUI-03 (H*)
1 61503U 24181A   26178.22067759 -.00000230  00000+0  00000+0 0  9997
2 61503   0.0467 357.7458 0001514  90.0159 189.8965  1.00274533  6926
STARLINK-32174          
1 61509U 24183A   26178.73956792  .00000152  00000+0  15643-4 0  9991
2 61509  53.1607 337.6417 0001091  97.8102 262.3025 15.34394976 96695
STARLINK-32139          
1 61510U 24183B   26178.89489760  .00000956  00000+0  42549-4 0  9993
2 61510  53.1607 349.9773 0001043  82.6310 277.4810 15.31717012 96537
STARLINK-32140          
1 61511U 24183C   26178.87623755  .00000868  00000+0  39709-4 0  9992
2 61511  53.1609 349.8606 0001134  64.4906 295.6212 15.31706989 96533
STARLINK-32201          
1 61512U 24183D   26178.87825350  .00001367  00000+0  51592-4 0  9997
2 61512  53.1601 337.0823 0000920 111.3558 248.7543 15.34391803 96706
STARLINK-32030          
1 61513U 24183E   26178.89492611  .00002983  00000+0  11280-3 0  9994
2 61513  53.1607 350.6823 0001210  86.5088 273.6052 15.30201670 96528
STARLINK-31837          
1 61514U 24183F   26178.75162394  .00001356  00000+0  57893-4 0  9996
2 61514  53.1620 351.1996 0001612  36.7539 323.3572 15.30206266 96509
STARLINK-32136          
1 61515U 24183G   26178.77840077  .00000707  00000+0  34527-4 0  9998
2 61515  53.1605 350.6718 0000876  87.1282 272.9819 15.31714771 96515
STARLINK-32047          
1 61516U 24183H   26178.75506874  .00002313  00000+0  86255-4 0  9991
2 61516  53.1600 350.5167 0001017  83.0358 277.0759 15.31705604 96519
STARLINK-31756          
1 61517U 24183J   26177.22165660  .00047307  00000+0  15809-2 0  9994
2 61517  53.1593 358.6688 0000977 158.4540 201.6502 15.30572423 96263
